INTELSAT 23 (IS-23)     
1 38867U 12057A   26185.35432409 -.00000273  00000+0  00000+0 0  9990
2 38867   0.0158  22.2071 0000499 191.2104 143.4564  1.00266390 50124
FM-6                    
1 39360U 13058A   26183.70211649 -.00000005  00000+0  00000+0 0  9992
2 39360   0.0160  40.7600 0001960 138.6453 237.7772  1.00271889 46228
INTELSAT 30 (IS-30)     
1 40271U 14062A   26186.21468787 -.00000138  00000+0  00000+0 0  9994
2 40271   0.0182  48.3724 0001695 343.0020 234.0864  1.00276491  6977
DIRECTV 14              
1 40333U 14078B   26183.42034461 -.00000115  00000+0  00000+0 0  9993
2 40333   0.0102  26.2148 0000293   2.4668 303.8682  1.00271936 42196
DIRECTV 15              
1 40663U 15026A   26185.98605395 -.00000090  00000+0  00000+0 0  9998
2 40663   0.0181  69.4379 0000300 276.8843 188.7729  1.00274623 40641
SKY MEXICO-1            
1 40664U 15026B   26186.24369851 -.00000221  00000+0  00000+0 0  9999
2 40664   0.0166  66.3093 0002461  56.1171 169.7573  1.00272341 40637
INTELSAT 34 (IS-34)     
1 40874U 15039A   26186.20926027 -.00000272  00000+0  00000+0 0  9992
2 40874   0.0093 349.4006 0000293  41.4792 272.1706  1.00271717 39816
INTELSAT 31 (IS-31)     
1 41581U 16035A   26186.13015587 -.00000138  00000+0  00000+0 0  9998
2 41581   0.0394 205.6145 0000944  64.2305 325.0988  1.00273064 36868
INTELSAT 36 (IS-36)     
1 41747U 16053A   26186.16235707 -.00000011  00000+0  00000+0 0  9993
2 41747   0.0097  10.0275 0002215 335.4655  64.6192  1.00270251 36136
INTELSAT 32E (IS-32E)   
1 41945U 17007B   26186.17121042  .00000000  00000+0  00000+0 0  9997
2 41945   0.0170  17.7536 0000840 346.9082 296.9814  1.00276571 34405
INTELSAT 35E (IS-35E)   
1 42818U 17041A   26186.18526645 -.00000225  00000+0  00000+0 0  9994
2 42818   0.0192  36.9619 0001896  63.7045 214.7243  1.00273037 32999
INTELSAT 37E (IS-37E)   
1 42950U 17059A   26186.17961221 -.00000127  00000+0  00000+0 0  9993
2 42950   0.0176  48.3848 0002742  56.6458 224.8165  1.00272520 32248
AZERSPACE 2 (IS-38)     
1 43632U 18074A   26186.15793705  .00000150  00000+0  00000+0 0  9992
2 43632   0.0178 343.1906 0001421 115.7245 286.2194  1.00268819 28620
HORIZONS-3E             
1 43633U 18074B   26185.89731694 -.00000018  00000+0  00000+0 0  9996
2 43633   0.0397 223.4726 0000751  76.0728 115.4029  1.00268688 28516
AT&T T-16               
1 44333U 19034A   26186.20031322 -.00000102  00000+0  00000+0 0  9992
2 44333   0.0143  57.8212 0000440 271.1422 285.4985  1.00270256 25819
INTELSAT 39 (IS-39)     
1 44476U 19049B   26183.86988079  .00000000  00000+0  00000+0 0  9991
2 44476   0.0212  29.7717 0000592 309.6573 316.5859  1.00268633 25287
GALAXY 30 (G-30)        
1 46114U 20056C   26186.19549059  .00000050  00000+0  00000+0 0  9997
2 46114   0.0186  41.1043 0001985  65.4754 122.0039  1.00273180 21473
GALAXY 33 (G-33)        
1 54026U 22128A   26186.19393059  .00000092  00000+0  00000+0 0  9993
2 54026   0.0182  57.4493 0001940  42.6910 119.8684  1.00271496 13920
GALAXY 34 (G-34)        
1 54027U 22128B   26183.85030604  .00000070  00000+0  00000+0 0  9994
2 54027   0.0130  31.8533 0001955  68.7137 357.4298  1.00268570 14078
GALAXY 31 (G-31)        
1 54243U 22153A   26186.19627060  .00000026  00000+0  00000+0 0  9991
2 54243   0.0221  92.0355 0001424  12.7134 128.1013  1.00272376  7313
GALAXY 32 (G-32)        
1 54244U 22153B   26185.98839396 -.00000161  00000+0  00000+0 0  9996
2 54244   0.0095 351.1203 0001813  56.4825 140.2192  1.00272054 13322
GALAXY 35 (G-35)        
1 54741U 22170A   26186.20178656 -.00000149  00000+0  00000+0 0  9994
2 54741   0.0169  86.0659 0002174  19.4715 157.2060  1.00272235 13078
GALAXY 36 (G-36)        
1 54742U 22170B   26186.13136920 -.00000172  00000+0  00000+0 0  9991
2 54742   0.0180 120.7890 0002757 335.3383 145.3013  1.00271654 12959
GALAXY 37 (G-37)        
1 57493U 23112A   26186.19514392  .00000000  00000+0  00000+0 0  9992
2 57493   0.0208  32.4029 0001876  81.2155 112.8289  1.00270558 10723
